{
  "links" : {
    "next" : "https://api.nasa.gov/neo/rest/v1/feed?start_date=2015-03-16&end_date=2015-03-16&detailed=true&api_key=t0TVs3DtDT2H8Oy2Zy8m2eVrNsAVKAexjcZXUckd",
    "prev" : "https://api.nasa.gov/neo/rest/v1/feed?start_date=2015-03-14&end_date=2015-03-14&detailed=true&api_key=t0TVs3DtDT2H8Oy2Zy8m2eVrNsAVKAexjcZXUckd",
    "self" : "https://api.nasa.gov/neo/rest/v1/feed?start_date=2015-03-15&end_date=2015-03-15&detailed=true&api_key=t0TVs3DtDT2H8Oy2Zy8m2eVrNsAVKAexjcZXUckd"
  },
  "element_count" : 14,
  "near_earth_objects" : {
    "2015-03-15" : [ {
      "links" : {
        "self" : "https://api.nasa.gov/neo/rest/v1/neo/2451370?api_key=t0TVs3DtDT2H8Oy2Zy8m2eVrNsAVKAexjcZXUckd"
      },
      "neo_reference_id" : "2451370",
      "name" : "451370 (2011 AK5)",
      "nasa_jpl_url" : "http://ssd.jpl.nasa.gov/sbdb.cgi?sstr=2451370",
      "absolute_magnitude_h" : 21.5,
      "estimated_diameter" : {
        "kilometers" : {
          "estimated_diameter_min" : 0.1332155667,
          "estimated_diameter_max" : 0.2978790628
        },
        "meters" : {
          "estimated_diameter_min" : 133.2155666981,
          "estimated_diameter_max" : 297.8790627982
        },
        "miles" : {
          "estimated_diameter_min" : 0.0827762899,
          "estimated_diameter_max" : 0.1850934111
        },
        "feet" : {
          "estimated_diameter_min" : 437.0589598459,
          "estimated_diameter_max" : 977.2935443908
        }
      },
      "is_potentially_hazardous_asteroid" : true,
      "close_approach_data" : [ {
        "close_approach_date" : "2015-03-15",
        "epoch_date_close_approach" : 1426402800000,
        "relative_velocity" : {
          "kilometers_per_second" : "5.5771536369",
          "kilometers_per_hour" : "20077.7530926614",
          "miles_per_hour" : "12475.5349702706"
        },
        "miss_distance" : {
          "astronomical" : "0.2962437936",
          "lunar" : "115.2388305664",
          "kilometers" : "44317440",
          "miles" : "27537580"
        },
        "orbiting_body" : "Earth"
      } ],
      "orbital_data" : {
        "orbit_id" : "43",
        "orbit_determination_date" : "2017-04-06 09:20:08",
        "orbit_uncertainty" : "0",
        "minimum_orbit_intersection" : ".0377422",
        "jupiter_tisserand_invariant" : "5.306",
        "epoch_osculation" : "2458000.5",
        "eccentricity" : ".2307270181901738",
        "semi_major_axis" : "1.187732895267396",
        "inclination" : "5.522757022073951",
        "ascending_node_longitude" : "316.8114742797704",
        "orbital_period" : "472.7990595970923",
        "perihelion_distance" : ".9136908259359675",
        "perihelion_argument" : "325.6664650692824",
        "aphelion_distance" : "1.461774964598824",
        "perihelion_time" : "2458160.517145218718",
        "mean_anomaly" : "238.1592917552988",
        "mean_motion" : ".7614228342729428",
        "equinox" : "J2000"
      }
    }, {
      "links" : {
        "self" : "https://api.nasa.gov/neo/rest/v1/neo/3273782?api_key=t0TVs3DtDT2H8Oy2Zy8m2eVrNsAVKAexjcZXUckd"
      },
      "neo_reference_id" : "3273782",
      "name" : "(2005 ES70)",
      "nasa_jpl_url" : "http://ssd.jpl.nasa.gov/sbdb.cgi?sstr=3273782",
      "absolute_magnitude_h" : 23.8,
      "estimated_diameter" : {
        "kilometers" : {
          "estimated_diameter_min" : 0.046190746,
          "estimated_diameter_max" : 0.1032856481
        },
        "meters" : {
          "estimated_diameter_min" : 46.1907460282,
          "estimated_diameter_max" : 103.2856480504
        },
        "miles" : {
          "estimated_diameter_min" : 0.0287015901,
          "estimated_diameter_max" : 0.0641787064
        },
        "feet" : {
          "estimated_diameter_min" : 151.544447199,
          "estimated_diameter_max" : 338.8636855496
        }
      },
      "is_potentially_hazardous_asteroid" : false,
      "close_approach_data" : [ {
        "close_approach_date" : "2015-03-15",
        "epoch_date_close_approach" : 1426402800000,
        "relative_velocity" : {
          "kilometers_per_second" : "12.0762225495",
          "kilometers_per_hour" : "43474.4011782608",
          "miles_per_hour" : "27013.3022210144"
        },
        "miss_distance" : {
          "astronomical" : "0.0562219069",
          "lunar" : "21.8703212738",
          "kilometers" : "8410678",
          "miles" : "5226152.5"
        },
        "orbiting_body" : "Earth"
      } ],
      "orbital_data" : {
        "orbit_id" : "34",
        "orbit_determination_date" : "2017-03-09 06:17:26",
        "orbit_uncertainty" : "0",
        "minimum_orbit_intersection" : ".052677",
        "jupiter_tisserand_invariant" : "7.480",
        "epoch_osculation" : "2455882.5",
        "eccentricity" : ".3864587856542614",
        "semi_major_axis" : ".7629744336180587",
        "inclination" : "20.83376792025673",
        "ascending_node_longitude" : "352.9223651783215",
        "orbital_period" : "243.4240059087946",
        "perihelion_distance" : ".4681162605167759",
        "perihelion_argument" : "351.1788107856062",
        "aphelion_distance" : "1.057832606719342",
        "perihelion_time" : "2455988.218870874459",
        "mean_anomaly" : "203.652258647551",
        "mean_motion" : "1.478900976327223",
        "equinox" : "J2000"
      }
    }, {
      "links" : {
        "self" : "https://api.nasa.gov/neo/rest/v1/neo/3445544?api_key=t0TVs3DtDT2H8Oy2Zy8m2eVrNsAVKAexjcZXUckd"
      },
      "neo_reference_id" : "3445544",
      "name" : "(2009 CE)",
      "nasa_jpl_url" : "http://ssd.jpl.nasa.gov/sbdb.cgi?sstr=3445544",
      "absolute_magnitude_h" : 24.6,
      "estimated_diameter" : {
        "kilometers" : {
          "estimated_diameter_min" : 0.0319561887,
          "estimated_diameter_max" : 0.0714562102
        },
        "meters" : {
          "estimated_diameter_min" : 31.9561886721,
          "estimated_diameter_max" : 71.4562101727
        },
        "miles" : {
          "estimated_diameter_min" : 0.0198566489,
          "estimated_diameter_max" : 0.0444008168
        },
        "feet" : {
          "estimated_diameter_min" : 104.8431420431,
          "estimated_diameter_max" : 234.436392583
        }
      },
      "is_potentially_hazardous_asteroid" : false,
      "close_approach_data" : [ {
        "close_approach_date" : "2015-03-15",
        "epoch_date_close_approach" : 1426402800000,
        "relative_velocity" : {
          "kilometers_per_second" : "14.3328200714",
          "kilometers_per_hour" : "51598.1522571559",
          "miles_per_hour" : "32061.0852177867"
        },
        "miss_distance" : {
          "astronomical" : "0.3168970363",
          "lunar" : "123.2729492188",
          "kilometers" : "47407124",
          "miles" : "29457420"
        },
        "orbiting_body" : "Earth"
      } ],
      "orbital_data" : {
        "orbit_id" : "7",
        "orbit_determination_date" : "2017-04-06 09:01:28",
        "orbit_uncertainty" : "7",
        "minimum_orbit_intersection" : ".0659485",
        "jupiter_tisserand_invariant" : "6.635",
        "epoch_osculation" : "2458000.5",
        "eccentricity" : ".1873200333238078",
        "semi_major_axis" : ".892635029153654",
        "inclination" : "8.137156646263824",
        "ascending_node_longitude" : "127.7337023569578",
        "orbital_period" : "308.0415608320432",
        "perihelion_distance" : ".7254266057465935",
        "perihelion_argument" : "190.34833968",
        "aphelion_distance" : "1.059843452560715",
        "perihelion_time" : "2458113.208362077551",
        "mean_anomaly" : "228.2807273202935",
        "mean_motion" : "1.16867347064342",
        "equinox" : "J2000"
      }
    } ]
  }
}